NORAD_CAT_ID,OBJECT_NAME,OBJECT_TYPE,EPOCH,MEAN_MOTION,ECCENTRICITY,INCLINATION,RA_OF_ASC_NODE,ARG_OF_PERICENTER,MEAN_ANOMALY,BSTAR,MEAN_MOTION_DOT,MEAN_MOTION_DDOT,TLE_LINE0,TLE_LINE1,TLE_LINE2,SEMIMAJOR_AXIS,PERIOD,APOGEE,PERIGEE,DECAYED
53171.0,STARLINK-4052,PAYLOAD,2022-09-29 06:00:00,15.72770169,0.0004008999999999,53.2162,42.2695,6.8898,284.698,0.0043378,0.00645355,0.0,0 STARLINK-4052,1 53171U 22083AR  22272.25001157  .00645355  00000-0  43378-2 0  9993,2 53171  53.2162  42.2695 0004009   6.8898 284.6980 15.72770169 12249,6729.121,91.558,353.684,348.288,0.0
53171.0,STARLINK-4052,PAYLOAD,2022-09-29 14:00:01,15.73175411,0.0004064,53.2147,40.6331,5.362,15.0854,0.00023069,0.00031854,0.0,0 STARLINK-4052,1 53171U 22083AR  22272.58334491  .00031854  00000-0  23069-3 0  9998,2 53171  53.2147  40.6331 0004064   5.3620  15.0854 15.73175411  1300,6727.965,91.535,352.565,347.096,0.0
53171.0,STARLINK-4052,PAYLOAD,2022-09-29 22:00:00,15.73253168,0.0004196,53.2147,38.9839,4.2901,105.0561,-0.00067733,-0.0009488999999999,0.0,0 STARLINK-4052,1 53171U 22083AR  22272.91667824 -.00094890  00000-0 -67733-3 0  9991,2 53171  53.2147  38.9839 0004196   4.2901 105.0561 15.73253168 12357,6727.744000000002,91.53,352.432,346.786,0.0
53171.0,STARLINK-4052,PAYLOAD,2022-09-30 14:00:01,15.73203229,0.0004234,53.2147,35.6848,6.2639,280.9633,-0.00013397,-0.00019396,0.0,0 STARLINK-4052,1 53171U 22083AR  22273.58334491 -.00019396  00000-0 -13397-3 0  9991,2 53171  53.2147  35.6848 0004234   6.2639 280.9633 15.73203229 12451,6727.886,91.533,352.6,346.902,0.0
53171.0,STARLINK-4052,PAYLOAD,2022-09-30 22:00:00,15.73193696,0.0004314,53.2141,34.0353,4.9676,11.1946,-2.0575e-06,-9.14e-06,0.0,0 STARLINK-4052,1 53171U 22083AR  22273.91667824 -.00000914  00000-0 -20575-5 0  9991,2 53171  53.2141  34.0353 0004314   4.9676  11.1946 15.73193696  1303,6727.913000000001,91.534,352.681,346.876,0.0
53171.0,STARLINK-4052,PAYLOAD,2022-10-01 06:00:00,15.73209674,0.0004046999999999,53.2143,32.384,3.4466,101.6361,2.9997e-05,3.59e-05,0.0,0 STARLINK-4052,1 53171U 22083AR  22274.25001157  .00003590  00000-0  29997-4 0  9997,2 53171  53.2143  32.3840 0004047   3.4466 101.6361 15.73209674 12561,6727.868,91.533,352.455,347.01,0.0
53171.0,STARLINK-4052,PAYLOAD,2022-10-01 14:00:01,15.732169,0.0004237,53.2145,30.7362,1.2694,192.7501,-0.00025255,-0.00035963,0.0,0 STARLINK-4052,1 53171U 22083AR  22274.58334491 -.00035963  00000-0 -25255-3 0  9996,2 53171  53.2145  30.7362 0004237   1.2694 192.7501 15.73216900  1301,6727.847,91.532,352.56300000000016,346.861,0.0
53171.0,STARLINK-4052,PAYLOAD,2022-10-01 22:00:00,15.73221971,0.0004202,53.2145,29.0865,356.7324,286.2152,-0.00096883,-0.00134652,0.0,0 STARLINK-4052,1 53171U 22083AR  22274.91667824 -.00134652  00000-0 -96883-3 0  9992,2 53171  53.2145  29.0865 0004202 356.7324 286.2152 15.73221971 12666,6727.833000000001,91.532,352.525,346.87,0.0
53171.0,STARLINK-4052,PAYLOAD,2022-10-02 14:00:01,15.73149197,0.0004283,53.2144,25.7877,356.4436,104.2423,0.00038297,0.00053372,0.0,0 STARLINK-4052,1 53171U 22083AR  22275.58334491  .00053372  00000-0  38297-3 0  9999,2 53171  53.2144  25.7877 0004283 356.4436 104.2423 15.73149197  1309,6728.04,91.536,352.787,347.023,0.0
53171.0,STARLINK-4052,PAYLOAD,2022-10-02 22:00:00,15.73217951,0.0004349,53.2139,24.1378,357.1359,192.4385,0.00034692,0.00048405,0.0,0 STARLINK-4052,1 53171U 22083AR  22275.91667824  .00048405  00000-0  34692-3 0  9991,2 53171  53.2139  24.1378 0004349 357.1359 192.4385 15.73217951  1307,6727.844,91.532,352.635,346.783,0.0
53171.0,STARLINK-4052,PAYLOAD,2022-10-03 06:00:00,15.73271202,0.0004107,53.2142,22.4865,358.5487,279.994,-8.208e-05,-0.00012169,0.0,0 STARLINK-4052,1 53171U 22083AR  22276.25001157 -.00012169  00000-0 -82080-4 0  9995,2 53171  53.2142  22.4865 0004107 358.5487 279.9940 15.73271202 12873,6727.691999999999,91.529,352.32,346.7940000000001,0.0
53171.0,STARLINK-4052,PAYLOAD,2022-10-03 14:00:01,15.73256769,0.0004303999999999,53.2147,20.8382,359.0194,8.5354,-0.00040161,-0.00056779,0.0,0 STARLINK-4052,1 53171U 22083AR  22276.58334491 -.00056779  00000-0 -40161-3 0  9999,2 53171  53.2147  20.8382 0004304 359.0194   8.5354 15.73256769  1306,6727.733,91.53,352.494,346.70300000000015,0.0
53171.0,STARLINK-4052,PAYLOAD,2022-10-03 22:00:00,15.73247119,0.0004273,53.2144,19.1884,355.3929,101.1554,-0.00040802,-0.00057646,0.0,0 STARLINK-4052,1 53171U 22083AR  22276.91667824 -.00057646  00000-0 -40802-3 0  9991,2 53171  53.2144  19.1884 0004273 355.3929 101.1554 15.73247119  1302,6727.761,91.53,352.501,346.751,0.0
53171.0,STARLINK-4052,PAYLOAD,2022-10-04 06:00:00,15.73238397,0.0004037,53.2147,17.5372,356.0362,189.4701,-4.3699e-05,-6.766e-05,0.0,0 STARLINK-4052,1 53171U 22083AR  22277.25001157 -.00006766  00000-0 -43699-4 0  9995,2 53171  53.2147  17.5372 0004037 356.0362 189.4701 15.73238397 13030,6727.786,91.531,352.367,346.935,0.0
53171.0,STARLINK-4052,PAYLOAD,2022-10-04 14:00:01,15.73217261,0.0004261999999999,53.2146,15.8896,356.5991,277.88,-0.0005047,-0.00070956,0.0,0 STARLINK-4052,1 53171U 22083AR  22277.58334491 -.00070956  00000-0 -50470-3 0  9997,2 53171  53.2146  15.8896 0004262 356.5991 277.8800 15.73217261  1300,6727.846,91.532,352.57800000000015,346.844,0.0
53171.0,STARLINK-4052,PAYLOAD,2022-10-04 22:00:00,15.73171096,0.0004161,53.2141,14.2392,352.4075,10.9882,7.1255e-05,9.379e-05,0.0,0 STARLINK-4052,1 53171U 22083AR  22277.91667824  .00009379  00000-0  71255-4 0  9997,2 53171  53.2141  14.2392 0004161 352.4075  10.9882 15.73171096  1306,6727.978,91.535,352.642,347.043,0.0
53171.0,STARLINK-4052,PAYLOAD,2022-10-05 06:00:00,15.73171959,0.0003881,53.2144,12.5885,349.3574,102.9303,-0.00029186,-0.00041354,0.0,0 STARLINK-4052,1 53171U 22083AR  22278.25001157 -.00041354  00000-0 -29186-3 0  9992,2 53171  53.2144  12.5885 0003881 349.3574 102.9303 15.73171959 13192,6727.975,91.535,352.451,347.22900000000016,0.0
53171.0,STARLINK-4052,PAYLOAD,2022-10-05 14:00:01,15.73122608,0.0004178999999999,53.2146,10.9411,347.9993,193.2337,0.00051595,0.000722,0.0,0 STARLINK-4052,1 53171U 22083AR  22278.58335648  .00072200  00000-0  51595-3 0  9994,2 53171  53.2146  10.9411 0004179 347.9993 193.2337 15.73122608  1308,6728.116,91.538,352.793,347.1690000000001,0.0
53171.0,STARLINK-4052,PAYLOAD,2022-10-05 22:00:00,15.73177417,0.0004186,53.215,9.2883,346.4563,283.5794,-0.00017375,-0.00024926,0.0,0 STARLINK-4052,1 53171U 22083AR  22278.91667824 -.00024926  00000-0 -17375-3 0  9997,2 53171  53.2150   9.2883 0004186 346.4563 283.5794 15.73177417 13291,6727.96,91.534,352.641,347.0080000000001,0.0
53171.0,STARLINK-4052,PAYLOAD,2022-10-06 06:00:00,15.7321571,0.0004025,53.2151,7.6399,345.62699999999984,13.3092,0.00011159,0.00015081,0.0,0 STARLINK-4052,1 53171U 22083AR  22279.25001157  .00015081  00000-0  11159-3 0  9990,2 53171  53.2151   7.6399 0004025 345.6270  13.3092 15.73215710 13349,6727.85,91.532,352.423,347.00699999999995,0.0
53171.0,STARLINK-4052,PAYLOAD,2022-10-06 14:00:01,15.73218092,0.0004303,53.2149,5.9925,345.7701,102.1205,0.0001688,0.0002316,0.0,0 STARLINK-4052,1 53171U 22083AR  22279.58334491  .00023160  00000-0  16880-3 0  9999,2 53171  53.2149   5.9925 0004303 345.7701 102.1205 15.73218092  1303,6727.844,91.532,352.60400000000016,346.814,0.0
53171.0,STARLINK-4052,PAYLOAD,2022-10-06 22:42:55,15.73235248,0.0004158,53.2146,4.1941,341.9052,3.7541,3.0786e-05,3.706e-05,0.0,0 STARLINK-4052,1 53171U 22083AR  22279.94646991  .00003706  00000-0  30786-4 0  9996,2 53171  53.2146   4.1941 0004158 341.9052   3.7541 15.73235248  1305,6727.795,91.531,352.457,346.862,0.0
53171.0,STARLINK-4052,PAYLOAD,2022-10-07 06:00:00,15.73257659,0.0003976999999999,53.2148,2.6914,338.7311,287.0706,-0.00036385,-0.00051528,0.0,0 STARLINK-4052,1 53171U 22083AR  22280.25001157 -.00051528  00000-0 -36385-3 0  9998,2 53171  53.2148   2.6914 0003977 338.7311 287.0706 15.73257659 13505,6727.731,91.53,352.271,346.92,0.0
53171.0,STARLINK-4052,PAYLOAD,2022-10-07 14:00:01,15.73169038,0.000426,53.2149,1.0438,337.2898,17.4876,0.0003614,0.00050356,0.0,0 STARLINK-4052,1 53171U 22083AR  22280.58334491  .00050356  00000-0  36140-3 0  9999,2 53171  53.2149   1.0438 0004260 337.2898  17.4876 15.73169038  1301,6727.983,91.535,352.715,346.982,0.0
53171.0,STARLINK-4052,PAYLOAD,2022-10-07 22:00:00,15.73222086,0.0004263,53.215,359.39300000000014,333.7598,109.93,-0.00018075,-0.00025952,0.0,0 STARLINK-4052,1 53171U 22083AR  22280.91667824 -.00025952  00000-0 -18075-3 0  9998,2 53171  53.2150 359.3930 0004263 333.7598 109.9300 15.73222086  1302,6727.831999999999,91.532,352.565,346.829,0.0
53171.0,STARLINK-4052,PAYLOAD,2022-10-08 06:00:00,15.73214304,0.0004098,53.2153,357.7428,331.8662,200.7505,-0.00081668,-0.00113838,0.0,0 STARLINK-4052,1 53171U 22083AR  22281.25001157 -.00113838  00000-0 -81668-3 0  9996,2 53171  53.2153 357.7428 0004098 331.8662 200.7505 15.73214304 13669,6727.854,91.532,352.476,346.962,0.0
53171.0,STARLINK-4052,PAYLOAD,2022-10-08 14:00:01,15.73143633,0.0004472,53.215,356.0953,331.9977,289.5621,0.00061868,0.00086936,0.0,0 STARLINK-4052,1 53171U 22083AR  22281.58334491  .00086936  00000-0  61868-3 0  9998,2 53171  53.2150 356.0953 0004472 331.9977 289.5621 15.73143633  1305,6728.056,91.536,352.93,346.912,0.0
53171.0,STARLINK-4052,PAYLOAD,2022-10-08 22:00:00,15.73223095,0.0004366,53.2146,354.4444,328.0256,22.436,-0.00049792,-0.00070038,0.0,0 STARLINK-4052,1 53171U 22083AR  22281.91667824 -.00070038  00000-0 -49792-3 0  9994,2 53171  53.2146 354.4444 0004366 328.0256  22.4360 15.73223095  1301,6727.829000000002,91.532,352.63199999999995,346.75699999999995,0.0
53171.0,STARLINK-4052,PAYLOAD,2022-10-09 06:00:00,15.73110507,0.0004274,53.2146,352.7945,323.486,115.9159,0.0015298,0.00218987,0.0,0 STARLINK-4052,1 53171U 22083AR  22282.25001157  .00218987  00000-0  15298-2 0  9991,2 53171  53.2146 352.7945 0004274 323.4860 115.9159 15.73110507 13812,6728.15,91.538,352.891,347.14,0.0
